{
"type": "FeatureCollection",
"name": "200mm Kolam Linggi",
"crs": { "type": "name", "properties": { "name": "urn:ogc:def:crs:OGC:1.3:CRS84" } },
"features": [
{"type":"Feature","properties":{"fid":1},"geometry":{"type":"Polygon","coordinates":[[[101.998948737332668,2.497245937310633],[102.002686378131003,2.495466108359041],[102.00361443179861,2.496387805494687],[102.003046581609325,2.500161466640859],[102.003173712248724,2.502856636196126],[102.002851647962274,2.505195839961076],[102.002190568637388,2.506619703122349],[102.001016729066919,2.509950525874614],[101.999986970887775,2.511399815163767],[101.999542013649886,2.512683834621701],[101.998283420319851,2.514637408780471],[101.999147908667766,2.514688261036231],[101.999249613179288,2.515654453895666],[101.998588533854416,2.516264680964784],[101.997088392309507,2.518375049578814],[101.994494927265762,2.516696925138742],[101.993732143429369,2.514917096187151],[101.999427596074455,2.507289257823187],[101.998919073516873,2.498695226599787],[101.998948737332668,2.497245937310633]]]}}
]
}
