{
"type": "FeatureCollection",
"name": "250mm PRV Pengkalan Kempas",
"crs": { "type": "name", "properties": { "name": "urn:ogc:def:crs:OGC:1.3:CRS84" } },
"features": [
{"type":"Feature","properties":{"fid":1},"geometry":{"type":"Polygon","coordinates":[[[102.019463384843817,2.519086981159451],[102.016259692730955,2.520663401088004],[102.006394355113557,2.517815674765457],[102.000648050212703,2.514001755583475],[102.000088675399354,2.513442380770118],[102.000097150775318,2.512162599000163],[102.000224281414688,2.511276922212347],[102.000535751481223,2.510901886826119],[102.001398120985172,2.509670838467936],[102.001754086775492,2.508361392882122],[102.002961827849788,2.505958623797473],[102.003203376064647,2.504763595787119],[102.0033813589598,2.50256423572551],[102.003523321507132,2.499290621760975],[102.003779701629909,2.496360260522819],[102.003601718734743,2.496264912543269],[102.003131335368977,2.495800885709461],[102.002336768872752,2.494845287069976],[101.99429363708677,2.49411640473742],[101.994395341598292,2.492489132553108],[101.999683976197304,2.492234871274309],[102.001667214171931,2.488573508859606],[102.003447043123529,2.484912146444904],[102.006447326213348,2.482928908470273],[102.007159257794015,2.475504479129348],[101.990852634447037,2.477538569359739],[101.981495819387249,2.477945387405817],[101.977427638926457,2.464316982862202],[101.986581044963216,2.453129486595055],[102.01326152848516,2.446416988834767],[102.015371897099172,2.444688012138935],[102.018168771165961,2.443315001233421],[102.019643486582993,2.44140804164243],[102.022236951626752,2.44153517228183],[102.024686335279185,2.459587723076544],[102.02387269918701,2.488776917882646],[102.018312852557301,2.504202102129773],[102.019463384843817,2.519086981159451]]]}}
]
}
