{
"type": "FeatureCollection",
"name": "300mm Telok Kemang Ke Pasir Panjang",
"crs": { "type": "name", "properties": { "name": "urn:ogc:def:crs:OGC:1.3:CRS84" } },
"features": [
{"type":"Feature","properties":{"fid":1},"geometry":{"type":"Polygon","coordinates":[[[101.866858590434006,2.461878193429719],[101.865027909226654,2.459962758462768],[101.863553193809622,2.458742304324534],[101.86246834568675,2.458335486278456],[101.857626080888295,2.45716588439598],[101.856337823742379,2.456759066349902],[101.854235930504316,2.455877627250067],[101.852710362831516,2.44280294726917],[101.853659604939025,2.437921130716233],[101.855151271107985,2.426937043472125],[101.851896726739355,2.415139320135861],[101.857592179384454,2.409579473506128],[101.877119445596193,2.413647653966908],[101.90302019452983,2.417173410366251],[101.906681556944577,2.432412136342258],[101.906122182131213,2.434615734091848],[101.895426257669712,2.441865005662934],[101.886747472686707,2.435355916925685],[101.875627779427248,2.441593793632215],[101.879673358885441,2.453368915965919],[101.87940214685473,2.456894672365262],[101.876215405493781,2.461369670872121],[101.868011241564531,2.463539367117871],[101.866858590434006,2.461878193429719]]]}}
]
}
