{
"type": "FeatureCollection",
"name": "300mm Telok Kemang Ke PD",
"crs": { "type": "name", "properties": { "name": "urn:ogc:def:crs:OGC:1.3:CRS84" } },
"features": [
{"type":"Feature","properties":{"fid":1},"geometry":{"type":"Polygon","coordinates":[[[101.854112331271608,2.456314109112007],[101.859299261359098,2.4578396767848],[101.86285891926228,2.458721115884635],[101.864570945206196,2.45990201826839],[101.866740641451941,2.464851637829006],[101.866345123907152,2.469394439343544],[101.86324878655644,2.474151950382401],[101.860163749707013,2.474897783466877],[101.858104233348726,2.474663298065318],[101.857477055527696,2.474493790546119],[101.856648587527602,2.475421137932404],[101.856555358392043,2.475357572612705],[101.856178910443177,2.475106842740556],[101.856118523389455,2.47517570517023],[101.856088859573603,2.47517358632624],[101.855924649164379,2.47523927048993],[101.855765029583765,2.475370991957976],[101.855534075588849,2.475542618321165],[101.855120901010807,2.475601945952884],[101.854176602872599,2.475387942709895],[101.853676555690967,2.475065878423417],[101.853193459261249,2.475311664326256],[101.852303544785457,2.474921797032098],[101.852549330688291,2.473904751916903],[101.853275387895522,2.470975096960075],[101.850359858565298,2.468771499210485],[101.847546033746596,2.466296689430177],[101.848461374350251,2.463313357092271],[101.854112331271608,2.456314109112007]]]}}
]
}
