{
"type": "FeatureCollection",
"name": "300mm Bukit Kuau lama",
"crs": { "type": "name", "properties": { "name": "urn:ogc:def:crs:OGC:1.3:CRS84" } },
"features": [
{"type":"Feature","properties":{"fid":1},"geometry":{"type":"Polygon","coordinates":[[[101.929463367524875,2.471901738065031],[101.916445190050382,2.471630526034313],[101.909122465220975,2.462409316989877],[101.906952768975231,2.448035079361785],[101.907495193036652,2.43632776003576],[101.906986670479057,2.433536536219613],[101.906918867471376,2.4322482790737],[101.906545950929129,2.429298848239633],[101.909664889282396,2.422043926417908],[101.924208634429689,2.419704722652959],[101.945973399894868,2.410653021127722],[101.95371989352229,2.42358644484262],[101.955448870218135,2.425061160259653],[101.954025007056856,2.426078205374849],[101.952245178105258,2.427451216280362],[101.952003629890399,2.429777706981371],[101.949804269828817,2.435096005396246],[101.948888929225134,2.439774412926144],[101.947770179598422,2.44262213924869],[101.947346410800421,2.462437568243076],[101.940430504017101,2.472608019395028],[101.929463367524875,2.471901738065031]]]}}
]
}
