{
"type": "FeatureCollection",
"name": "300mm Bukit Kuau Baru",
"crs": { "type": "name", "properties": { "name": "urn:ogc:def:crs:OGC:1.3:CRS84" } },
"features": [
{"type":"Feature","properties":{"fid":1},"geometry":{"type":"Polygon","coordinates":[[[101.955482771721989,2.457352342667101],[101.951007773215139,2.447385300538189],[101.952668946903273,2.433807748250333],[101.952457062504266,2.429561584894393],[101.953550386003101,2.426891841467005],[101.955940442023817,2.424908603492375],[101.955152232059547,2.423637297098381],[101.953016437317629,2.420001360811558],[101.94955000855002,2.412695586734072],[101.959211937144374,2.402321726559081],[101.970907955969111,2.398050137075262],[101.983926133443617,2.396219455867911],[101.99175738083062,2.405779679950745],[102.022590798572921,2.432680523247658],[102.017861538787287,2.442088190563213],[102.015929153068413,2.444223985305123],[101.979900329862616,2.453038376303482],[101.962000335835171,2.457309965787302],[101.955482771721989,2.457352342667101]]]}}
]
}
