{
"type": "FeatureCollection",
"name": "500mm Sunggala Boundry",
"crs": { "type": "name", "properties": { "name": "urn:ogc:def:crs:OGC:1.3:CRS84" } },
"features": [
{"type":"Feature","properties":{"fid":1},"geometry":{"type":"Polygon","coordinates":[[[101.898322717404412,2.457294427597766],[101.89900074748121,2.469227756949505],[101.899407565527284,2.476550481778981],[101.892084840697819,2.477499723886506],[101.882795828645612,2.477770935917227],[101.875676512839178,2.482788358485572],[101.868884911569864,2.48630281438367],[101.867461048408572,2.485997700849108],[101.865754672715298,2.485863507396408],[101.865505708546479,2.485862447974411],[101.865449559180746,2.485832784158551],[101.865410360566941,2.485750149242941],[101.864949511999114,2.485232091887388],[101.863703631733003,2.485257518015267],[101.863601927221481,2.485435500910427],[101.863449370454205,2.486283038506423],[101.864257356295724,2.487591071529576],[101.863528473963171,2.489048836194689],[101.861816448019255,2.489930275294525],[101.858075982095599,2.486037252603583],[101.857025035476568,2.482884412746479],[101.85563507381913,2.48040960296617],[101.855194354269202,2.481426648081365],[101.854753634719287,2.484037063877033],[101.848210644478215,2.485901646588224],[101.845396819659513,2.488342554864693],[101.84397295649822,2.491563197729477],[101.842684699352304,2.492817553371551],[101.840752313633431,2.491902212767875],[101.844006858002061,2.485393124030626],[101.84174675774608,2.477358467620585],[101.84350963594575,2.473358090167484],[101.850357739721389,2.473086878136765],[101.852129093297037,2.475177470873556],[101.852841024877677,2.475465633656194],[101.853646185593874,2.475287650761036],[101.854400494054303,2.475753796438833],[101.855047447752582,2.475698706495093],[101.855424601982804,2.475647854239334],[101.856068730555762,2.475177470873557],[101.856246713450929,2.475207134689417],[101.856623867681151,2.475613952735495],[101.85758158516461,2.474609620684241],[101.858285041369285,2.474991012602439],[101.861734519384967,2.475841375323755],[101.866130414382823,2.475214197502717],[101.86918154972841,2.468840714780828],[101.876233062527092,2.462602838074297],[101.88186071216451,2.457042991444563],[101.880572455018594,2.454398674145056],[101.885928892625287,2.456364961367766],[101.898540252053735,2.458263445582798],[101.898322717404412,2.457294427597766]]]}}
]
}
