{
"type": "FeatureCollection",
"name": "Seremban Barat",
"crs": { "type": "name", "properties": { "name": "urn:ogc:def:crs:OGC:1.3:CRS84" } },
"features": [
{"type":"Feature","properties":{"layer":"Seremban Barat","path":"memory?geometry=Polygon&crs=EPSG:4326&uid={307eead4-d18c-4b12-adc8-d9fdfa8bc6d0}"},"geometry":{"type":"MultiPolygon","coordinates":[[[[101.830199144927008,2.609259702522984],[101.830532769245906,2.61459769162547],[101.830755185458514,2.624050380661122],[101.834091428647568,2.638173810161449],[101.842765660939108,2.646180793815178],[101.84756614419446,2.651685595077116],[101.849011849576385,2.650962742386154],[101.848789433363777,2.644790692486405],[101.843562652367609,2.633669881856225],[101.841672114560481,2.628887933285248],[101.839058724062397,2.623216319863857],[101.838217712758478,2.620528790628231],[101.837863236919659,2.619722531857542],[101.837863236919659,2.619166491326034],[101.837640820707051,2.617505320238151],[101.836883215482871,2.61555917837787],[101.834091428647568,2.608481245778871],[101.830199144927008,2.609259702522984]]],[[[101.855599771457022,2.672937927558498],[101.856044603882239,2.672020460681509],[101.856197515028398,2.671881450548631],[101.856962070759224,2.671714638389179],[101.857837834596353,2.669963110714925],[101.858171458915251,2.669073445864511],[101.858324370061425,2.668878831678483],[101.858991618699235,2.669031742824648],[101.859686669363612,2.669212455997388],[101.860576334214031,2.669212455997388],[101.861855227436507,2.669351466130266],[101.862550278100912,2.669337565116977],[101.864093290575852,2.669129049917661],[101.863537250044345,2.668044770881219],[101.863314833831737,2.667530433389573],[101.863398239911461,2.666473956379706],[101.863523349031041,2.666195936113952],[101.864593727054199,2.665584291529292],[101.865789214196951,2.665542588489429],[101.866956899313109,2.665278469236962],[101.868138485442572,2.666446154353131],[101.869014249279701,2.665695499635594],[101.869973419196555,2.665417479369839],[101.871961264096697,2.663707654735449],[101.87225318537574,2.66210903820736],[101.872489502601638,2.66064943181215],[101.872350492468769,2.658870102111321],[101.872058571189726,2.658397467659539],[101.870654568847655,2.658397467659539],[101.868777932053817,2.659523449735844],[101.86501075745285,2.662567771645856],[101.861660613250493,2.665653796595731],[101.85967276835035,2.665653796595731],[101.858783103499931,2.665584291529292],[101.856892565692803,2.66620983712724],[101.854737908633211,2.667210710083955],[101.852930776905808,2.668072572907795],[101.852277429281287,2.669101247891086],[101.852096716108548,2.669935308688349],[101.854418185327575,2.67213166878781],[101.855599771457022,2.672937927558498]]]]}}
]
}
