{
"type": "FeatureCollection",
"name": "300mm Sirusa 3 Desa Permai",
"crs": { "type": "name", "properties": { "name": "urn:ogc:def:crs:OGC:1.3:CRS84" } },
"features": [
{"type":"Feature","properties":{"fid":1},"geometry":{"type":"MultiPolygon","coordinates":[[[[101.802124969496248,2.543442778169564],[101.802194055054855,2.54227617430445],[101.802099847474906,2.54158898234622],[101.801107527632709,2.54142568920763],[101.800512973128136,2.540408247344112],[101.800360147498438,2.540091430741892],[101.798869574233365,2.541129807623177],[101.798249897707436,2.540041186699249],[101.79746274103934,2.540002107999416],[101.798400629835342,2.543686671126559],[101.798769086148056,2.546098385173416],[101.801080312109633,2.545930905031274],[101.801850720763483,2.545127000348988],[101.802124969496248,2.543442778169564]]],[[[101.823611973899247,2.546187707915892],[101.820295867084809,2.547494053024606],[101.818185617293807,2.549637798844036],[101.81306909895136,2.550531026268798],[101.812533162496493,2.55061476633987],[101.81245779643254,2.549986715806834],[101.812223324233528,2.549718747579405],[101.811729257814207,2.55043891219062],[101.81159527370049,2.55079062048912],[101.811419419551243,2.551427045029263],[101.811159825330918,2.552113713612048],[101.81083323905375,2.552029973540977],[101.809498980588018,2.551538698457358],[101.809364996474301,2.550952517959858],[101.809172394310835,2.549311212566858],[101.808086564722601,2.548625939651922],[101.807454327186008,2.548198865289458],[101.807337091086509,2.547616871795511],[101.804964455739523,2.548059298504338],[101.804604373433918,2.548469624852589],[101.804621121448122,2.548750154090678],[101.804851406643579,2.549143732424714],[101.805269409164993,2.550284690893062],[101.805436889307131,2.550651053704],[101.805899553199794,2.551760609645695],[101.806134025398791,2.552263050072124],[101.806971426109513,2.55472082115807],[101.807097036216121,2.555198139563177],[101.807381752457772,2.555097651477892],[101.807842322848657,2.555114399492106],[101.807976306962374,2.555097651477892],[101.809766948815422,2.554906444982278],[101.810826958548404,2.55486666844852],[101.810952568655011,2.55480176989344],[101.81241697314789,2.55458858162917],[101.815464064984013,2.553925988316816],[101.816998950703407,2.553575152310725],[101.817032970107277,2.553582479566944],[101.817065942760266,2.553575675686169],[101.81730599763064,2.553443087240305],[101.818418344908082,2.553039739231311],[101.818657004110634,2.552847137067847],[101.818845419270545,2.552880633096276],[101.819389729732507,2.552918316128258],[101.820697470509046,2.553092774609656],[101.823611973899247,2.546187707915892]]]]}}
]
}
