{
"type": "FeatureCollection",
"name": "350mm Bukit Tunggal",
"crs": { "type": "name", "properties": { "name": "urn:ogc:def:crs:OGC:1.3:CRS84" } },
"features": [
{"type":"Feature","properties":{"fid":1},"geometry":{"type":"Polygon","coordinates":[[[101.955091241509024,2.514672840542848],[101.95759177701197,2.508579037343508],[101.957985160601652,2.507945252671251],[101.958165461413586,2.507743097215446],[101.96443774420456,2.504291884704163],[101.96893980084198,2.506171384077062],[101.977667088627783,2.512538370324789],[101.978366437231642,2.526875016704108],[101.99794819813998,2.532469805535063],[101.989556014893552,2.552401240745336],[101.975569042816176,2.557296680972421],[101.964029790852322,2.551002543537598],[101.955091241509024,2.514672840542848]]]}}
]
}
