{
"type": "FeatureCollection",
"name": "375mm Sirusa 2 Sunggala",
"crs": { "type": "name", "properties": { "name": "urn:ogc:def:crs:OGC:1.3:CRS84" } },
"features": [
{"type":"Feature","properties":{"fid":1},"geometry":{"type":"Polygon","coordinates":[[[101.851851393824816,2.516320415900424],[101.845118692110674,2.514561874407926],[101.844666495726898,2.513707725682998],[101.844917715940113,2.512702844830141],[101.845319668281249,2.510994547380286],[101.847128453816396,2.510492106953857],[101.847530406157532,2.508381857162859],[101.84837199387178,2.506212989322111],[101.848836751266234,2.505798475970308],[101.849464801799257,2.505057376341326],[101.849866754140407,2.504014812456488],[101.851164725242029,2.502101351832507],[101.854430588013813,2.501875253640615],[101.857671328764283,2.501724521512686],[101.859530358342056,2.502980622578757],[101.860158408875094,2.503558429069149],[101.859831822597926,2.504764286092577],[101.859806700576598,2.506346973435825],[101.860284018981702,2.507904538757753],[101.856917668124623,2.512049672275785],[101.851851393824816,2.516320415900424]]]}},
{"type":"Feature","properties":{"fid":2},"geometry":{"type":"Polygon","coordinates":[[[101.851851393824816,2.516320415900424],[101.845118692110674,2.514561874407926],[101.844666495726898,2.513707725682998],[101.844917715940113,2.512702844830141],[101.845319668281249,2.510994547380286],[101.847128453816396,2.510492106953857],[101.847530406157532,2.508381857162859],[101.84837199387178,2.506212989322111],[101.848836751266234,2.505798475970308],[101.849464801799257,2.505057376341326],[101.849866754140407,2.504014812456488],[101.851164725242029,2.502101351832507],[101.854430588013813,2.501875253640615],[101.857671328764283,2.501724521512686],[101.859530358342056,2.502980622578757],[101.860158408875094,2.503558429069149],[101.859831822597926,2.504764286092577],[101.859806700576598,2.506346973435825],[101.860284018981702,2.507904538757753],[101.856917668124623,2.512049672275785],[101.851851393824816,2.516320415900424]]]}},
{"type":"Feature","properties":{"fid":3},"geometry":{"type":"Polygon","coordinates":[[[101.859195398057665,2.502704280344223],[101.859999302739951,2.502201839917795],[101.860803207422236,2.502779646408187],[101.859672716462768,2.503131354706686],[101.859195398057665,2.502704280344223]]]}}
]
}
