{
"type": "FeatureCollection",
"name": "375mm Sirusa 2 Pekan PD",
"crs": { "type": "name", "properties": { "name": "urn:ogc:def:crs:OGC:1.3:CRS84" } },
"features": [
{"type":"Feature","properties":{"fid":1,"dmz_name":"375mm Sirusa 2 Pekan"},"geometry":{"type":"Polygon","coordinates":[[[101.832865949586548,2.517583844222704],[101.832463997245412,2.517081403796275],[101.832966437671828,2.516365426188615],[101.835616810921252,2.515749936666239],[101.838053646989422,2.515536399485007],[101.839778692453493,2.516842744593721],[101.843773093843595,2.518952994384721],[101.845154805016278,2.520309583536079],[101.843898703950202,2.522620809497651],[101.840431865007844,2.522671053540293],[101.835332094679586,2.523600568329186],[101.834276969784099,2.522495199391043],[101.834000627549557,2.519932753216257],[101.832581233344911,2.518391935908543],[101.832380257174336,2.518247484285945],[101.832367696163686,2.5179899835674],[101.832865949586548,2.517583844222704]]]}},
{"type":"Feature","properties":{"fid":2,"dmz_name":"375mm Sirusa 2 Pekan"},"geometry":{"type":"Polygon","coordinates":[[[101.823482874622997,2.516604085391167],[101.82029237791518,2.517860186457239],[101.819739693446095,2.519844826141632],[101.817252613335285,2.521100927207703],[101.814639923117866,2.523060444870775],[101.812605039390832,2.524417034022132],[101.810494789599829,2.52454264412874],[101.809540152789609,2.523437275190596],[101.808233807680907,2.524140691787597],[101.807480147041261,2.524994840512525],[101.807542952094579,2.525936916312078],[101.807769050286467,2.52684130907965],[101.807869538371762,2.527343749506079],[101.807897800645748,2.528248142273651],[101.808064234037019,2.528461679454882],[101.808773931139342,2.528700338657436],[101.809295213081768,2.528612411582811],[101.811763451676597,2.528474240465543],[101.813220528913234,2.530157415894079],[101.814451507957983,2.530006683766151],[101.818337047255696,2.530157415894079],[101.82482690276376,2.530216033943829],[101.82707951067556,2.522001132971721],[101.826953900568952,2.519689907010149],[101.825383774236371,2.517784820393274],[101.823482874622997,2.516604085391167]]]}},
{"type":"Feature","properties":{"fid":3,"dmz_name":"375mm Sirusa 2 Pekan"},"geometry":{"type":"Polygon","coordinates":[[[101.797251297359921,2.521163732261007],[101.79167420862656,2.520812023962507],[101.788810298195926,2.523625690350507],[101.789262494579702,2.530458880149937],[101.792628845436781,2.534176939305509],[101.795392267782134,2.539402319740367],[101.797188492306603,2.539033863427652],[101.796887028050747,2.538066665606777],[101.795857025176574,2.536433734220884],[101.795354584750143,2.53547909741067],[101.794776778259774,2.533609600324001],[101.794676290174479,2.533201367477527],[101.794217813285371,2.532567036439161],[101.794358077904405,2.532058315507402],[101.795978448279641,2.531656363166259],[101.797473208548269,2.531065995665206],[101.798138942113283,2.530726848377367],[101.800035654723033,2.530274651993581],[101.800774137474804,2.52989415804565],[101.800911000153462,2.529884475599932],[101.800930626732622,2.529867596741857],[101.801201211837281,2.529331529443139],[101.80141474901852,2.52846481970755],[101.801496395587804,2.527880732711828],[101.801695278256588,2.527045425502891],[101.80192137644849,2.526417374969856],[101.8033533316638,2.526367130927213],[101.804559188687222,2.526300138870356],[101.805539994269651,2.526514722802476],[101.805687586144913,2.526467619012499],[101.805759811956207,2.526398533453865],[101.806587791908953,2.525651153319553],[101.80599114390256,2.525286884010393],[101.802662476077472,2.523886331321724],[101.799899053732119,2.523873770311063],[101.799711685323089,2.523643485115617],[101.799900100483001,2.522958910034609],[101.799909521241005,2.522393664554877],[101.799378818540589,2.522333999754239],[101.798109109712954,2.522238745423395],[101.797983499606346,2.521271547602521],[101.797251297359921,2.521163732261007]]]}},
{"type":"Feature","properties":{"fid":4,"dmz_name":"375mm Sirusa 2 Pekan"},"geometry":{"type":"Polygon","coordinates":[[[101.832865949586548,2.517583844222704],[101.832463997245412,2.517081403796275],[101.832966437671828,2.516365426188615],[101.835616810921252,2.515749936666239],[101.838053646989422,2.515536399485007],[101.839778692453493,2.516842744593721],[101.843773093843595,2.518952994384721],[101.845154805016278,2.520309583536079],[101.843898703950202,2.522620809497651],[101.840431865007844,2.522671053540293],[101.835332094679586,2.523600568329186],[101.834276969784099,2.522495199391043],[101.834000627549557,2.519932753216257],[101.832581233344911,2.518391935908543],[101.832380257174336,2.518247484285945],[101.832367696163686,2.5179899835674],[101.832865949586548,2.517583844222704]]]}},
{"type":"Feature","properties":{"fid":5,"dmz_name":"375mm Sirusa 2 Pekan"},"geometry":{"type":"Polygon","coordinates":[[[101.823482874622997,2.516604085391167],[101.82029237791518,2.517860186457239],[101.819739693446095,2.519844826141632],[101.817252613335285,2.521100927207703],[101.814639923117866,2.523060444870775],[101.812605039390832,2.524417034022132],[101.810494789599829,2.52454264412874],[101.809540152789609,2.523437275190596],[101.808233807680907,2.524140691787597],[101.807480147041261,2.524994840512525],[101.807542952094579,2.525936916312078],[101.807769050286467,2.52684130907965],[101.807869538371762,2.527343749506079],[101.807897800645748,2.528248142273651],[101.808064234037019,2.528461679454882],[101.808773931139342,2.528700338657436],[101.809295213081768,2.528612411582811],[101.811763451676597,2.528474240465543],[101.813220528913234,2.530157415894079],[101.814451507957983,2.530006683766151],[101.818337047255696,2.530157415894079],[101.82482690276376,2.530216033943829],[101.82707951067556,2.522001132971721],[101.826953900568952,2.519689907010149],[101.825383774236371,2.517784820393274],[101.823482874622997,2.516604085391167]]]}},
{"type":"Feature","properties":{"fid":6,"dmz_name":"375mm Sirusa 2 Pekan"},"geometry":{"type":"Polygon","coordinates":[[[101.797251297359921,2.521163732261007],[101.79167420862656,2.520812023962507],[101.788810298195926,2.523625690350507],[101.789262494579702,2.530458880149937],[101.792628845436781,2.534176939305509],[101.795392267782134,2.539402319740367],[101.797188492306603,2.539033863427652],[101.796887028050747,2.538066665606777],[101.795857025176574,2.536433734220884],[101.795354584750143,2.53547909741067],[101.794776778259774,2.533609600324001],[101.794676290174479,2.533201367477527],[101.794217813285371,2.532567036439161],[101.794358077904405,2.532058315507402],[101.795978448279641,2.531656363166259],[101.797473208548269,2.531065995665206],[101.798138942113283,2.530726848377367],[101.800035654723033,2.530274651993581],[101.800774137474804,2.52989415804565],[101.800911000153462,2.529884475599932],[101.800930626732622,2.529867596741857],[101.801201211837281,2.529331529443139],[101.80141474901852,2.52846481970755],[101.801496395587804,2.527880732711828],[101.801695278256588,2.527045425502891],[101.80192137644849,2.526417374969856],[101.8033533316638,2.526367130927213],[101.804559188687222,2.526300138870356],[101.805539994269651,2.526514722802476],[101.805687586144913,2.526467619012499],[101.805759811956207,2.526398533453865],[101.806587791908953,2.525651153319553],[101.80599114390256,2.525286884010393],[101.802662476077472,2.523886331321724],[101.799899053732119,2.523873770311063],[101.799711685323089,2.523643485115617],[101.799900100483001,2.522958910034609],[101.799909521241005,2.522393664554877],[101.799378818540589,2.522333999754239],[101.798109109712954,2.522238745423395],[101.797983499606346,2.521271547602521],[101.797251297359921,2.521163732261007]]]}}
]
}
