{
"type": "FeatureCollection",
"name": "450mm Sirusa 3 Jalan Pantai",
"crs": { "type": "name", "properties": { "name": "urn:ogc:def:crs:OGC:1.3:CRS84" } },
"features": [
{"type":"Feature","properties":{"fid":1},"geometry":{"type":"Polygon","coordinates":[[[101.824039222720231,2.513977787412207],[101.840402032607557,2.49309301368701],[101.841821426812217,2.493520088049474],[101.841256181332483,2.495014848318098],[101.841172441261421,2.495793630979061],[101.843722326425535,2.497677782578167],[101.845782332173883,2.499825715401148],[101.848570876540563,2.500290472795593],[101.849362220212186,2.501182304552504],[101.848256851274044,2.502513771682538],[101.849651123457392,2.503995970940501],[101.849249171116242,2.50486268067609],[101.848985389892363,2.505478170198464],[101.848658803615194,2.505817317486303],[101.846841644072953,2.506416058994463],[101.846238715561242,2.508350454636211],[101.84681652205164,2.510335094320603],[101.845359444815003,2.510737046661745],[101.844907248431213,2.512646320282172],[101.844354563962142,2.514455105817313],[101.843550659279856,2.516640721672276],[101.840561138742615,2.515962427096598],[101.837245031928191,2.514806814115814],[101.834230389369623,2.515786572947348],[101.832622580005051,2.51654023358699],[101.832371359791836,2.517143162098704],[101.832386014304277,2.517850765699257],[101.83227924571365,2.51827155955639],[101.832496969898429,2.519127801783094],[101.833413923676659,2.52012012162529],[101.832584896973046,2.520974270350218],[101.828829154785495,2.521577198861932],[101.827975006060569,2.521351100670039],[101.827372077548858,2.519780974337451],[101.82709573531433,2.518524873271381],[101.825613536056366,2.517771212631738],[101.824558411160865,2.517042674013418],[101.822674259561765,2.515535352734133],[101.824039222720231,2.513977787412207]]]}},
{"type":"Feature","properties":{"fid":2},"geometry":{"type":"Polygon","coordinates":[[[101.824039222720231,2.513977787412207],[101.840402032607557,2.49309301368701],[101.841821426812217,2.493520088049474],[101.841256181332483,2.495014848318098],[101.841172441261421,2.495793630979061],[101.843722326425535,2.497677782578167],[101.845782332173883,2.499825715401148],[101.848570876540563,2.500290472795593],[101.849362220212186,2.501182304552504],[101.848256851274044,2.502513771682538],[101.849651123457392,2.503995970940501],[101.849249171116242,2.50486268067609],[101.848985389892363,2.505478170198464],[101.848658803615194,2.505817317486303],[101.846841644072953,2.506416058994463],[101.846238715561242,2.508350454636211],[101.84681652205164,2.510335094320603],[101.845359444815003,2.510737046661745],[101.844907248431213,2.512646320282172],[101.844354563962142,2.514455105817313],[101.843550659279856,2.516640721672276],[101.840561138742615,2.515962427096598],[101.837245031928191,2.514806814115814],[101.834230389369623,2.515786572947348],[101.832622580005051,2.51654023358699],[101.832371359791836,2.517143162098704],[101.832386014304277,2.517850765699257],[101.83227924571365,2.51827155955639],[101.832496969898429,2.519127801783094],[101.833413923676659,2.52012012162529],[101.832584896973046,2.520974270350218],[101.828829154785495,2.521577198861932],[101.827975006060569,2.521351100670039],[101.827372077548858,2.519780974337451],[101.82709573531433,2.518524873271381],[101.825613536056366,2.517771212631738],[101.824558411160865,2.517042674013418],[101.822674259561765,2.515535352734133],[101.824039222720231,2.513977787412207]]]}}
]
}
