{
"type": "FeatureCollection",
"name": "600mm Sirusa 4",
"crs": { "type": "name", "properties": { "name": "urn:ogc:def:crs:OGC:1.3:CRS84" } },
"features": [
{"type":"Feature","properties":{"fid":1,"layer":"600mm_Sirusa 4","path":"600mm_sirusa_4.gpkg|layername=600mm_sirusa_4"},"geometry":{"type":"MultiPolygon","coordinates":[[[[101.826776176506456,2.56087826387815],[101.823845594044684,2.561610909493594],[101.82367320684105,2.563916588342196],[101.823845594044684,2.566092976788073],[101.826345208497372,2.566523944797158],[101.827724306126441,2.567515171218052],[101.828609586245108,2.568362741635918],[101.830094630176418,2.56997528026991],[101.830207759278807,2.570236554625416],[101.830390920682675,2.570368538578198],[101.830922447893855,2.57050860318115],[101.831407286904067,2.569404247657873],[101.832353620824037,2.567138074210108],[101.832073491618132,2.566890267604885],[101.83200884641677,2.566567041598073],[101.832051943217678,2.566082202587853],[101.832192007820623,2.565112524567415],[101.832612201629487,2.564530717755152],[101.832648115630221,2.563884265741514],[101.830094630176418,2.561654006294503],[101.826776176506456,2.56087826387815]]],[[[101.852229132198957,2.571350262483678],[101.845743083057798,2.573085965774975],[101.844144408973705,2.574090846627832],[101.841906265255986,2.577059812783999],[101.838960137300987,2.575895064522733],[101.839097166508196,2.57317731857978],[101.837165435323257,2.571913604779976],[101.836560222991423,2.571845090176372],[101.836532626831641,2.571514412054812],[101.836405589337446,2.571423059250006],[101.836315663920217,2.571360254196702],[101.836275697068103,2.571198959400717],[101.836000687061997,2.570498112101347],[101.832672019236881,2.571512508871379],[101.832333252585713,2.572669644398918],[101.832289711583215,2.573070221621959],[101.832107446673291,2.572536927996637],[101.831807728012436,2.572190194643875],[101.830738143771711,2.57215493362495],[101.828410916522685,2.5730247054251],[101.827693942471214,2.573130488481876],[101.825590035008688,2.57333030092245],[101.824156086905731,2.573612389073851],[101.821100131932226,2.574999322484901],[101.809176030699064,2.595172543201004],[101.811056618375062,2.596300895806604],[101.813642426429567,2.596677013341804],[101.816322263867875,2.598322527558305],[101.817544645857268,2.601660570683207],[101.818672998462873,2.602600864521207],[101.819801351068477,2.603823246510608],[101.819707321684675,2.605374731343309],[101.82036552737128,2.605891892954209],[101.82149387997687,2.60758442186261],[101.822011041587771,2.608806803852011],[101.822716261966278,2.608947847927711],[101.832213229730087,2.606597113332709],[101.829415855562033,2.589115483727884],[101.828851679259216,2.586200572830083],[101.829886002481018,2.582157309326681],[101.83343561171948,2.580229706958779],[101.835880375698281,2.577831957671878],[101.835034111244084,2.577056215255528],[101.833412104373522,2.574934677283538],[101.833368177480395,2.574466123756811],[101.833954764871024,2.575079074625672],[101.834628491806455,2.575878411667723],[101.835406893830765,2.577020321727796],[101.835829400552996,2.577431409349423],[101.836427000151119,2.579235627244338],[101.840195303349347,2.584716795532688],[101.842189839587633,2.588431809594791],[101.847396949461555,2.591355099348577],[101.856113529586793,2.585904381995164],[101.85835167330454,2.58238729901014],[101.855839471172374,2.582181755199327],[101.853555651052233,2.582318784406536],[101.851591565748905,2.582158916998125],[101.850723714103253,2.580628757517628],[101.847937453556668,2.579920773280382],[101.849794960587715,2.578169844521603],[101.852428966459641,2.577088836331402],[101.853593714720915,2.576609234106171],[101.855717667432643,2.575832735265322],[101.863419850787594,2.575187080285493],[101.862003882313104,2.569523206387575],[101.855883244391165,2.571807026507703],[101.852229132198957,2.571350262483678]],[[101.832740118061892,2.5737708745869],[101.832424795843622,2.573465468161663],[101.832373726878345,2.573316044152164],[101.832740118061892,2.5737708745869]]],[[[101.746584651280216,2.670099733727064],[101.752771564766462,2.689685058584784],[101.769558986073079,2.697960547961285],[101.809044892526671,2.68235533942274],[101.820394135100159,2.64026856487939],[101.802660943579099,2.623126479742352],[101.79408990101058,2.621057607398226],[101.785026269788659,2.610023621562891],[101.779322093182714,2.606270096024264],[101.775568567644086,2.606358761981869],[101.766761082521953,2.610772356316003],[101.759904248467137,2.610831466954406],[101.758722035699066,2.610831466954406],[101.757244269738976,2.613136781852146],[101.753815852711568,2.620821164844612],[101.752751861220304,2.629924203158763],[101.751372612990878,2.633707284016593],[101.746594503053245,2.634130910258485],[101.744939405177945,2.634012688981678],[101.744082300921093,2.633244250682432],[101.743018309429829,2.632712254936799],[101.739323894529605,2.632328035787176],[101.734269934946099,2.631293599615113],[101.728713534936205,2.637845028704843],[101.735393037075809,2.64653429255017],[101.745520659788951,2.657804720939119],[101.746584651280216,2.670099733727064]]]]}}
]
}
