{
"type": "FeatureCollection",
"name": "900mm Sirusa 2",
"crs": { "type": "name", "properties": { "name": "urn:ogc:def:crs:OGC:1.3:CRS84" } },
"features": [
{"type":"Feature","properties":{"fid":1},"geometry":{"type":"Polygon","coordinates":[[[101.863983236621294,2.50764703803921],[101.860767617892151,2.507747526124496],[101.86016468938044,2.507069231548818],[101.859913469167225,2.505436300162927],[101.860114445337786,2.504230443139499],[101.860365665551001,2.503326050371928],[101.858355903845293,2.500964580367716],[101.860390787572328,2.492021140777295],[101.864033480663934,2.489056742261369],[101.864996491481278,2.486699459260709],[101.86528539472647,2.485801346998468],[101.864939966933306,2.486680617744717],[101.864418684990881,2.48653616612212],[101.864167464777665,2.486146774791638],[101.863734109909842,2.485403581660879],[101.864613380656095,2.48524028852229],[101.865266553210461,2.485642240863432],[101.865568017466316,2.485993949161932],[101.867577779172024,2.486395901503074],[101.867531722132938,2.487899035778806],[101.866376109152156,2.489833431420554],[101.86512000808608,2.492370755574016],[101.865094886064767,2.49546076419655],[101.865295862235342,2.498299552605868],[101.865346106277983,2.499455165586653],[101.869340507668085,2.498726626968332],[101.881826152264836,2.494187915116265],[101.901421328895537,2.49659962916312],[101.932472147248788,2.498508902783547],[101.959118237863663,2.497520769944905],[101.958716285522527,2.501942245697473],[101.957711404669666,2.506464209535326],[101.957897726327815,2.507971530814611],[101.957345041858744,2.508693788927602],[101.896685827876411,2.512334388517429],[101.863983236621294,2.50764703803921]]]}},
{"type":"Feature","properties":{"fid":2},"geometry":{"type":"Polygon","coordinates":[[[101.852705542549714,2.501464927292365],[101.850595292758726,2.501665903462936],[101.848384554882443,2.499103457288153],[101.843335028596869,2.496515889092048],[101.84297494629125,2.494305151215764],[101.846768371510791,2.493476124512157],[101.851918385881675,2.496541011113369],[101.853501073224919,2.500083216119687],[101.852705542549714,2.501464927292365]]]}},
{"type":"Feature","properties":{"fid":3},"geometry":{"type":"Polygon","coordinates":[[[101.863983236621294,2.50764703803921],[101.860767617892151,2.507747526124496],[101.86016468938044,2.507069231548818],[101.859913469167225,2.505436300162927],[101.860114445337786,2.504230443139499],[101.860365665551001,2.503326050371928],[101.858355903845293,2.500964580367716],[101.860390787572328,2.492021140777295],[101.864033480663934,2.489056742261369],[101.864996491481278,2.486699459260709],[101.86528539472647,2.485801346998468],[101.864939966933306,2.486680617744717],[101.864418684990881,2.48653616612212],[101.864167464777665,2.486146774791638],[101.863734109909842,2.485403581660879],[101.864613380656095,2.48524028852229],[101.865266553210461,2.485642240863432],[101.865568017466316,2.485993949161932],[101.867577779172024,2.486395901503074],[101.867531722132938,2.487899035778806],[101.866376109152156,2.489833431420554],[101.86512000808608,2.492370755574016],[101.865094886064767,2.49546076419655],[101.865295862235342,2.498299552605868],[101.865346106277983,2.499455165586653],[101.869340507668085,2.498726626968332],[101.881826152264836,2.494187915116265],[101.901421328895537,2.49659962916312],[101.932472147248788,2.498508902783547],[101.959118237863663,2.497520769944905],[101.958716285522527,2.501942245697473],[101.957711404669666,2.506464209535326],[101.957897726327815,2.507971530814611],[101.957345041858744,2.508693788927602],[101.896685827876411,2.512334388517429],[101.863983236621294,2.50764703803921]]]}},
{"type":"Feature","properties":{"fid":4},"geometry":{"type":"Polygon","coordinates":[[[101.852705542549714,2.501464927292365],[101.850595292758726,2.501665903462936],[101.848384554882443,2.499103457288153],[101.843335028596869,2.496515889092048],[101.84297494629125,2.494305151215764],[101.846768371510791,2.493476124512157],[101.851918385881675,2.496541011113369],[101.853501073224919,2.500083216119687],[101.852705542549714,2.501464927292365]]]}}
]
}
