{
"type": "FeatureCollection",
"name": "900mm Sirusa 5",
"crs": { "type": "name", "properties": { "name": "urn:ogc:def:crs:OGC:1.3:CRS84" } },
"features": [
{"type":"Feature","properties":{"fid":1,"layer":"900mm_Sirusa 5","path":"900mm_sirusa_5.gpkg|layername=900mm_sirusa_5"},"geometry":{"type":"MultiPolygon","coordinates":[[[[101.798885694790343,2.522199944136069],[101.799759230109359,2.52229815994632],[101.799977776548076,2.522378163553348],[101.799968020010624,2.523035754176963],[101.800001842673765,2.523710256132147],[101.802468295339196,2.52379611366164],[101.803030271895878,2.523640009062562],[101.803069298045642,2.522086768301736],[101.802850751606925,2.521154043322246],[101.801492641594947,2.520467183086303],[101.799338398127674,2.520638898145289],[101.798386160073292,2.521497473440217],[101.798885694790343,2.522199944136069]]],[[[101.808053081912476,2.538003511214577],[101.807421725533985,2.534555334070498],[101.808089506318936,2.532636981997385],[101.80845375038345,2.531095015457603],[101.808581235806031,2.529671428238788],[101.80825493383152,2.52856453099829],[101.807892207450635,2.528560483842018],[101.807782934231284,2.527929127463524],[101.807612953667842,2.527042800239871],[101.806884465538801,2.526083624203314],[101.806168118878588,2.52670283911299],[101.804407605900096,2.526460009736646],[101.802471041623761,2.526571306534136],[101.801736482760319,2.527178379974995],[101.801130421108525,2.529718982324988],[101.800747964840781,2.529992165373375],[101.799706833889715,2.530614415650255],[101.796817164311236,2.531658581968532],[101.795603017429514,2.531949977220144],[101.794983802519837,2.532362787159928],[101.794923095175747,2.533224831445948],[101.795433036866058,2.535252456738416],[101.795603017429499,2.535823105772824],[101.796367929964987,2.53700082824809],[101.797630642721955,2.539077019415827],[101.798261999100447,2.539586961106148],[101.798643443579138,2.540688799401306],[101.798828600978609,2.540846638495929],[101.800380685409053,2.540009888936616],[101.800477817159589,2.540319496391453],[101.801179998772824,2.541096550395749],[101.802394145654546,2.541363662709725],[101.802491277405082,2.544738991040886],[101.801532101368508,2.546021939579228],[101.799516617544867,2.546374042174924],[101.796760504123384,2.546604730082449],[101.792923799977174,2.548255969841578],[101.790932599091164,2.551752712860909],[101.792583838850291,2.555735114632925],[101.795983450119081,2.557143525015711],[101.801787072213656,2.55702211032754],[101.802685540906126,2.55896474533828],[101.804506761228694,2.560227458095261],[101.806856135444804,2.558539793929681],[101.807699967527597,2.557720244784525],[101.807123247758781,2.556791422420015],[101.80697755013297,2.556196490447976],[101.806795428100713,2.555061263113575],[101.806400830364154,2.553841045497454],[101.805927313080289,2.552092673987789],[101.805405229921149,2.551036366200699],[101.804767802808257,2.549136226330819],[101.80448247829105,2.548832689610391],[101.804531044166325,2.548371313795341],[101.804616034448046,2.548067777074912],[101.805641988563067,2.547814829807889],[101.807390360072731,2.547450585743376],[101.807426784479176,2.547620566306815],[101.8076068829333,2.548092060012547],[101.809223721864115,2.549028976689601],[101.809320853614665,2.550018506398197],[101.809411914630786,2.550844126277761],[101.809454409771647,2.55097768243475],[101.810025058806048,2.551509883484566],[101.810947810436147,2.551922693424348],[101.811496200111065,2.550581061120056],[101.812054707676651,2.549658309489955],[101.812372409444038,2.549636050130457],[101.812712370570921,2.550158133289593],[101.813768678358002,2.550182416227227],[101.816536933248315,2.549502493973468],[101.818965227011745,2.547887678620791],[101.823578985162243,2.545556516607904],[101.823399898497385,2.542277308238222],[101.81995172135332,2.541888781236073],[101.813735289318913,2.539460487472638],[101.810384243925384,2.539800448599518],[101.808053081912476,2.538003511214577]]],[[[101.842822403806096,2.552574285584209],[101.840243555829332,2.553929273504199],[101.835173278451308,2.558081655839651],[101.83468883384549,2.566186086275072],[101.832470587492608,2.56600032180217],[101.832208331766154,2.566175158953136],[101.832219259088092,2.566765234337648],[101.83249244213647,2.566983780776356],[101.830992667200846,2.570595260676006],[101.830675774864716,2.570518769422458],[101.830358882528586,2.570428619016491],[101.830216827343435,2.57027836833988],[101.829691405280357,2.569732002243109],[101.828483936206496,2.568333305035378],[101.828093284447306,2.567923530462801],[101.827489549910368,2.567382628026999],[101.826637218799419,2.566874507557003],[101.825588195893616,2.566470196645394],[101.824542815428458,2.567326170197],[101.822138804602673,2.570779203928586],[101.821315613016878,2.573474610005984],[101.823238821677506,2.573518319293726],[101.828330953699407,2.572753406758247],[101.829773360194878,2.572316313880831],[101.831696568855506,2.571966639578898],[101.832406844781303,2.571518619379548],[101.835958224410305,2.570338468610525],[101.836166754137238,2.570794684301327],[101.836390764236924,2.571406614329709],[101.836543746744013,2.571461250939386],[101.836549893362587,2.571586232184022],[101.836553991108318,2.57162038006507],[101.836622969828042,2.571672967801884],[101.836882493724019,2.571721230140434],[101.837638300157906,2.571957988782374],[101.839140806924078,2.572442433388189],[101.839577899801512,2.573535165581758],[101.839621609089249,2.575545792817926],[101.841675945613162,2.57624514142181],[101.844473340028699,2.572923235553359],[101.854803301698567,2.568392039390692],[101.855862341315671,2.560704213104148],[101.853064946900204,2.555721354301605],[101.852147051857642,2.552399448433244],[101.849043692427983,2.549164961140365],[101.842822403806096,2.552574285584209]]],[[[101.858487426950688,2.590319333576857],[101.867290858618489,2.582253362153478],[101.867751771271244,2.579395703706339],[101.871346889962808,2.576077132606435],[101.869364965555917,2.571836736201003],[101.864433200171348,2.575477946157842],[101.85735435001267,2.575808266892323],[101.854602317381776,2.576269179545088],[101.853847572912883,2.576770422054969],[101.85234192491383,2.578470037462038],[101.8528028375666,2.5812816046439],[101.855499176585269,2.581658016643659],[101.859094295276833,2.582003701133233],[101.859578253562233,2.583908806764659],[101.855706587279016,2.58778047304788],[101.852941111362426,2.589439758597832],[101.849345992670862,2.595431623083769],[101.849460937142553,2.596121289913877],[101.844405980507062,2.595571838105671],[101.836732621172231,2.59612787863718],[101.834397250939901,2.601688283952269],[101.83542592592319,2.610334714217233],[101.836649215092507,2.614727434416154],[101.837705692102375,2.617507637073698],[101.838039316421288,2.620037621492064],[101.839624031936083,2.623457270760844],[101.84240423459363,2.623735291026598],[101.850902387383542,2.626867652687433],[101.854461046785204,2.618749460927402],[101.855795544060825,2.612966639399709],[101.855536058479444,2.607684254350374],[101.852255419343535,2.605126467905433],[101.850476089642711,2.603680762523509],[101.849708265106159,2.597605257695561],[101.850728730629157,2.603728050833528],[101.855890952340118,2.607876264708408],[101.863818649967669,2.616357057519273],[101.871193252411899,2.619675628619177],[101.874788371103463,2.619214715966412],[101.876447656653411,2.609259002666701],[101.874757643593256,2.618481096660762],[101.874481096001603,2.612074410787336],[101.87517246498075,2.602395245079284],[101.871300798697533,2.599445404101592],[101.858487426950688,2.590319333576857]]],[[[101.749697135620821,2.60224127644164],[101.739206906562771,2.601491974366066],[101.733712024675228,2.59225058210065],[101.717976681088174,2.5927501168177],[101.713730635993244,2.600492904931967],[101.716727844295548,2.609734297197383],[101.733462257316702,2.618226387387225],[101.738239058048507,2.627634291224991],[101.741486033709322,2.629694871932821],[101.743900451508424,2.63267646977521],[101.744974971498749,2.633790015915299],[101.745693052654502,2.633813431605161],[101.750821088734199,2.633144783572444],[101.752132367366457,2.622217461636986],[101.754942250149853,2.616785021589072],[101.757127714536949,2.611727232578946],[101.764433409773801,2.610291070267428],[101.76786771095351,2.609292000833329],[101.775610499067781,2.605420606776195],[101.781063753062242,2.606232350691401],[101.791054447403226,2.614849324560505],[101.801170025423474,2.620469090127312],[101.808163511462169,2.626963041448956],[101.810473859528514,2.617409439985384],[101.815718974057532,2.606981652766975],[101.816593159812371,2.600737468803856],[101.814844788302693,2.598052469699715],[101.808600604339574,2.596116772671148],[101.806540023631754,2.594368401161474],[101.811035836085196,2.582317126112655],[101.821489640736814,2.571061984519133],[101.82430732875018,2.567104732932506],[101.824479043809163,2.56623054717767],[101.818515848124392,2.565379777112695],[101.817579220529922,2.565301724813156],[101.816744060924862,2.564763163946337],[101.815102360891231,2.562655751858784],[101.814087680997218,2.561617656274915],[101.812557855926258,2.560610781610862],[101.809022086757153,2.558300433544509],[101.808132290542403,2.55834986666755],[101.80608732029448,2.559754808059252],[101.802731071414314,2.561690505087819],[101.799999240930447,2.561503179568925],[101.799437264373779,2.561721726007634],[101.796601364157198,2.564484777411314],[101.793406423362654,2.576265471155065],[101.789659912984774,2.575266401720966],[101.782666426946079,2.579262679457362],[101.780668288077891,2.587754769647204],[101.763933875056722,2.599993370214918],[101.749697135620821,2.60224127644164]]]]}}
]
}
